SKYSAT-C4               
1 41771U 16058B   26164.51956327  .00016454  00000+0  31105-3 0  9999
2 41771  96.9169 186.4454 0001109 125.9066 234.2289 15.48479013544908
SKYSAT-C5               
1 41772U 16058C   26164.64766229  .00008003  00000+0  24226-3 0  9991
2 41772  97.0474 205.4457 0001412 341.0647  19.0544 15.34423766543202
SKYSAT-C2               
1 41773U 16058D   26164.82010081  .00012398  00000+0  29255-3 0  9999
2 41773  97.0167 187.0417 0004922  77.7329 282.4470 15.41999859544532
SKYSAT-C3               
1 41774U 16058E   26164.59826911  .00021988  00000+0  36138-3 0  9994
2 41774  96.9005 195.5834 0001652  88.5847 271.5596 15.52394867545552
ALSAT-1B                
1 41785U 16059C   26164.84201053  .00000174  00000+0  35003-4 0  9994
2 41785  97.7749 173.7500 0007898 232.5845 127.4645 14.72271706520085
PATHFINDER 1            
1 41787U 16059E   26164.86403663  .00000530  00000+0  10089-3 0  9991
2 41787  97.8166 164.2902 0027552 214.4492 145.4928 14.67659788519220
SCATSAT 1               
1 41790U 16059H   26164.76411328  .00001018  00000+0  14052-3 0  9997
2 41790  98.1191 228.4948 0053278 258.8256 100.6963 14.79519077101085
GOKTURK 1A              
1 41875U 16073A   26164.89394001  .00000469  00000+0  10121-3 0  9991
2 41875  98.1263  59.6204 0001443  77.5833 282.5531 14.62772810508341
RESOURCESAT-2A          
1 41877U 16074A   26164.83321965  .00000122  00000+0  75567-4 0  9999
2 41877  98.7531 238.3648 0003343  89.6571 270.4990 14.21615041493827
CARTOSAT-2D             
1 41948U 17008A   26164.86532170  .00003250  00000+0  15713-3 0  9992
2 41948  97.4114 224.2328 0003653 243.7495 116.3364 15.19308504517078
SENTINEL-2B             
1 42063U 17013A   26164.85084655 -.00000146  00000+0 -38966-4 0  9995
2 42063  98.5696 239.6721 0001184  86.0914 274.0404 14.30815130484162
CARTOSAT-2E             
1 42767U 17036C   26164.88306777  .00004383  00000+0  21130-3 0  9995
2 42767  97.4282 224.7397 0002744 337.5785  22.5329 15.19231282497646
FORMOSAT-5              
1 42920U 17049A   26164.81162499  .00000148  00000+0  48620-4 0  9993
2 42920  98.2253 240.1962 0012699  93.6657 266.5990 14.50897737466188
SENTINEL-5P             
1 42969U 17064A   26164.81855227  .00000034  00000+0  37204-4 0  9991
2 42969  98.7925 106.9737 0000969  83.5750 276.5536 14.19518491449089
SKYSAT-C11              
1 42987U 17068A   26164.65283181  .00028280  00000+0  38215-3 0  9996
2 42987  97.4342 313.3301 0000752  87.0075 273.1267 15.57724663482699
SKYSAT-C10              
1 42988U 17068B   26164.64086459  .00009556  00000+0  28755-3 0  9998
2 42988  97.4497 301.4535 0001147  93.8741 266.2633 15.34583827481815
SKYSAT-C9               
1 42989U 17068C   26164.86348138  .00013773  00000+0  33010-3 0  9994
2 42989  97.4418 302.5812 0009257 143.5017 216.6862 15.41486630482241
SKYSAT-C8               
1 42990U 17068D   26164.87802825  .00010848  00000+0  30273-3 0  9993
2 42990  97.4515 301.4799 0001478  97.3532 262.7880 15.36917132481801
SKYSAT-C7               
1 42991U 17068E   26164.87153832  .00010926  00000+0  30514-3 0  9996
2 42991  97.4526 302.4627 0007180 116.0479 244.1505 15.36866562481864
SKYSAT-C6               
1 42992U 17068F   26164.82037350  .00009454  00000+0  28830-3 0  9990
2 42992  97.4561 302.3929 0004270 146.2935 213.8580 15.34157569481805
CARTOSAT-2F             
1 43111U 18004A   26164.84929640  .00003910  00000+0  18911-3 0  9999
2 43111  97.4792 224.5165 0000462 261.3699  98.7483 15.19188752466825
GAOFEN-1 02             
1 43259U 18031A   26164.84218685  .00000400  00000+0  64869-4 0  9997
2 43259  98.0533 227.3785 0004070  41.4088 318.7429 14.76451037442207
GAOFEN-1 03             
1 43260U 18031B   26164.88813230  .00000679  00000+0  10495-3 0  9993
2 43260  98.0523 227.2831 0003808  85.5567 274.6077 14.76464934442207
GAOFEN-1 04             
1 43262U 18031D   26164.86381951  .00000627  00000+0  97444-4 0  9996
2 43262  98.0534 227.4489 0002241  84.9957 275.1508 14.76474150442192
SENTINEL-3B             
1 43437U 18039A   26164.75333811  .00000106  00000+0  61977-4 0  9992
2 43437  98.6250 232.3347 0000760  83.1096 277.0170 14.26733919423634
GAOFEN-5 01             
1 43461U 18043A   26164.84198495  .00000288  00000+0  69338-4 0  9991
2 43461  98.4567 136.3580 0003035  89.1704 270.9844 14.60603281431200
GAOFEN-6                
1 43484U 18048A   26164.88621823  .00000776  00000+0  11826-3 0  9991
2 43484  97.8551 227.7180 0011550 178.0689 182.0568 14.76595375432908
GAOFEN-11 01            
1 43585U 18063A   26164.89195207  .00012411  00000+0  18517-3 0  9996
2 43585  97.1300 231.7796 0003572  10.7248 349.4082 15.55196530439838
ICESAT-2                
1 43613U 18070A   26164.81558970  .00010421  00000+0  37875-3 0  9995
2 43613  92.0075 290.0680 0005860 113.7940 246.3924 15.28228921431942
HYSIS                   
1 43719U 18096A   26164.82798204  .00001403  00000+0  19835-3 0  9993
2 43719  97.9847 231.6024 0001881 109.3290 250.8124 14.78690897406922
KAZSTSAT                
1 43783U 18099AB  26164.82848250  .00001398  00000+0  11728-3 0  9990
2 43783  97.4265 196.9096 0008318  78.6190 281.5968 14.99856940410808
