OBJECT_NAME,OBJECT_ID,EPOCH,MEAN_MOTION,ECCENTRICITY,INCLINATION,RA_OF_ASC_NODE,ARG_OF_PERICENTER,MEAN_ANOMALY,EPHEMERIS_TYPE,CLASSIFICATION_TYPE,NORAD_CAT_ID,ELEMENT_SET_NO,REV_AT_EPOCH,BSTAR,MEAN_MOTION_DOT,MEAN_MOTION_DDOT
SKYSAT-C4,2016-058B,2026-06-13T12:28:10.266528,15.48479013,.0001109,96.9169,186.4454,125.9066,234.2289,0,U,41771,999,54490,.31104583E-3,.16454E-3,0
SKYSAT-C5,2016-058C,2026-06-13T15:32:38.021856,15.34423766,.0001412,97.0474,205.4457,341.0647,19.0544,0,U,41772,999,54320,.24226E-3,.8003E-4,0
SKYSAT-C2,2016-058D,2026-06-13T19:40:56.709984,15.41999859,.0004922,97.0167,187.0417,77.7329,282.4470,0,U,41773,999,54453,.29255E-3,.12398E-3,0
SKYSAT-C3,2016-058E,2026-06-13T14:21:30.451104,15.52394867,.0001652,96.9005,195.5834,88.5847,271.5596,0,U,41774,999,54555,.36138E-3,.21988E-3,0
ALSAT-1B,2016-059C,2026-06-13T20:12:29.709792,14.72271706,.0007898,97.7749,173.7500,232.5845,127.4645,0,U,41785,999,52008,.35003E-4,.174E-5,0
PATHFINDER 1,2016-059E,2026-06-13T20:44:12.764832,14.67659788,.0027552,97.8166,164.2902,214.4492,145.4928,0,U,41787,999,51922,.10089E-3,.53E-5,0
SCATSAT 1,2016-059H,2026-06-13T18:20:19.387392,14.79519077,.0053278,98.1191,228.4948,258.8256,100.6963,0,U,41790,999,10108,.14052E-3,.1018E-4,0
GOKTURK 1A,2016-073A,2026-06-13T21:27:16.416864,14.62772810,.0001443,98.1263,59.6204,77.5833,282.5531,0,U,41875,999,50834,.10121E-3,.469E-5,0
RESOURCESAT-2A,2016-074A,2026-06-13T19:59:50.177760,14.21615041,.0003343,98.7531,238.3648,89.6571,270.4990,0,U,41877,999,49382,.75567E-4,.122E-5,0
CARTOSAT-2D,2017-008A,2026-06-13T20:46:03.794880,15.19308504,.0003653,97.4114,224.2328,243.7495,116.3364,0,U,41948,999,51707,.15713E-3,.325E-4,0
SENTINEL-2B,2017-013A,2026-06-13T20:25:13.141920,14.30815130,.0001184,98.5696,239.6721,86.0914,274.0404,0,U,42063,999,48416,-.38966E-4,-.146E-5,0
CARTOSAT-2E,2017-036C,2026-06-13T21:11:37.055328,15.19231282,.0002744,97.4282,224.7397,337.5785,22.5329,0,U,42767,999,49764,.2113E-3,.4383E-4,0
FORMOSAT-5,2017-049A,2026-06-13T19:28:44.399136,14.50897737,.0012699,98.2253,240.1962,93.6657,266.5990,0,U,42920,999,46618,.4862E-4,.148E-5,0
SENTINEL-5P,2017-064A,2026-06-13T19:38:42.916128,14.19518491,.0000969,98.7925,106.9737,83.5750,276.5536,0,U,42969,999,44908,.37204E-4,.34E-6,0
SKYSAT-C11,2017-068A,2026-06-13T15:40:04.668384,15.57724663,.0000752,97.4342,313.3301,87.0075,273.1267,0,U,42987,999,48269,.38215E-3,.2828E-3,0
SKYSAT-C10,2017-068B,2026-06-13T15:22:50.700576,15.34583827,.0001147,97.4497,301.4535,93.8741,266.2633,0,U,42988,999,48181,.28755E-3,.9556E-4,0
SKYSAT-C9,2017-068C,2026-06-13T20:43:24.791232,15.41486630,.0009257,97.4418,302.5812,143.5017,216.6862,0,U,42989,999,48224,.3301E-3,.13773E-3,0
SKYSAT-C8,2017-068D,2026-06-13T21:04:21.640800,15.36917132,.0001478,97.4515,301.4799,97.3532,262.7880,0,U,42990,999,48180,.30273E-3,.10848E-3,0
SKYSAT-C7,2017-068E,2026-06-13T20:55:00.910848,15.36866562,.000718,97.4526,302.4627,116.0479,244.1505,0,U,42991,999,48186,.30514E-3,.10926E-3,0
SKYSAT-C6,2017-068F,2026-06-13T19:41:20.270400,15.34157569,.000427,97.4561,302.3929,146.2935,213.8580,0,U,42992,999,48180,.2883E-3,.9454E-4,0
CARTOSAT-2F,2018-004A,2026-06-13T20:22:59.208960,15.19188752,.0000462,97.4792,224.5165,261.3699,98.7483,0,U,43111,999,46682,.18911E-3,.391E-4,0
GAOFEN-1 02,2018-031A,2026-06-13T20:12:44.943840,14.76451037,.000407,98.0533,227.3785,41.4088,318.7429,0,U,43259,999,44220,.64869E-4,.4E-5,0
GAOFEN-1 03,2018-031B,2026-06-13T21:18:54.630720,14.76464934,.0003808,98.0523,227.2831,85.5567,274.6077,0,U,43260,999,44220,.10495E-3,.679E-5,0
GAOFEN-1 04,2018-031D,2026-06-13T20:43:54.005664,14.76474150,.0002241,98.0534,227.4489,84.9957,275.1508,0,U,43262,999,44219,.97444E-4,.627E-5,0
SENTINEL-3B,2018-039A,2026-06-13T18:04:48.412704,14.26733919,.000076,98.6250,232.3347,83.1096,277.0170,0,U,43437,999,42363,.61977E-4,.106E-5,0
GAOFEN-5 01,2018-043A,2026-06-13T20:12:27.499680,14.60603281,.0003035,98.4567,136.3580,89.1704,270.9844,0,U,43461,999,43120,.69338E-4,.288E-5,0
GAOFEN-6,2018-048A,2026-06-13T21:16:09.255072,14.76595375,.001155,97.8551,227.7180,178.0689,182.0568,0,U,43484,999,43290,.11826E-3,.776E-5,0
GAOFEN-11 01,2018-063A,2026-06-13T21:24:24.658848,15.55196530,.0003572,97.1300,231.7796,10.7248,349.4082,0,U,43585,999,43983,.18517E-3,.12411E-3,0
ICESAT-2,2018-070A,2026-06-13T19:34:26.950080,15.28228921,.000586,92.0075,290.0680,113.7940,246.3924,0,U,43613,999,43194,.37875E-3,.10421E-3,0
HYSIS,2018-096A,2026-06-13T19:52:17.648256,14.78690897,.0001881,97.9847,231.6024,109.3290,250.8124,0,U,43719,999,40692,.19835E-3,.1403E-4,0
KAZSTSAT,2018-099AB,2026-06-13T19:53:00.888000,14.99856940,.0008318,97.4265,196.9096,78.6190,281.5968,0,U,43783,999,41080,.11728E-3,.1398E-4,0
